satname,norad_id,inclination_deg,eccentricity,mean_motion_rev_per_day,perigee_km,apogee_km,l1,l2
STARLINK-1364,45589,53.0535,0.0001145,15.06398522,546.4231348705571,548.009040727663,1 45589U 20025BL  25344.65173102  .00000777  00000+0  71050-4 0  9990,2 45589  53.0535 116.3273 0001145  83.4927 276.6192 15.06398522312089
STARLINK-1365,45590,53.0528,0.0001914,15.06397685,545.8931400169422,548.5441661609448,1 45590U 20025BM  25344.73374256 -.00000526  00000+0 -16374-4 0  9996,2 45590  53.0528 145.9529 0001914  98.1809 261.9397 15.06397685311690
STARLINK-1443,45660,53.0538,0.000111,15.06401778,546.4373955446581,547.9748217147744,1 45660U 20035D   25344.51995659  .00000437  00000+0  48226-4 0  9997,2 45660  53.0538 106.9150 0001110  83.3461 276.7655 15.06401778305293
STARLINK-1446,45663,53.0267,0.0001737,15.37154387,453.3420144507663,455.7156825665388,1 45663U 20035G   25344.48492982  .00042680  00000+0  11603-2 0  9990,2 45663  53.0267  61.6788 0001737   3.8016 356.2999 15.37154387305927
STARLINK-1448,45665,53.0545,0.0001141,15.06408569,546.3951160380384,547.9754745858281,1 45665U 20035J   25344.72268100 -.00003038  00000+0 -18512-3 0  9995,2 45665  53.0545 106.0013 0001141  74.3187 285.7928 15.06408569305315
STARLINK-1451,45668,53.0544,0.0001254,15.06404733,546.3286151228122,548.0654889030575,1 45668U 20035M   25344.72640832  .00003962  00000+0  28471-3 0  9993,2 45668  53.0544 106.3071 0001254  88.3994 271.7138 15.06404733305328
STARLINK-1452,45669,53.0378,0.0006643,15.31390158,467.1134511756454,476.2140964837554,1 45669U 20035N   25344.70113229  .00098861  00000+0  31843-2 0  9995,2 45669  53.0378  81.0181 0006643 142.4676 217.6789 15.31390158305673
STARLINK-1453,45670,53.0538,0.0001216,15.17089292,513.8047667612627,515.4810908399477,1 45670U 20035P   25344.91670139  .01947777  00000+0  87685-1 0  9992,2 45670  53.0538  74.1690 0001216  80.9971 318.7229 15.17089292  5820
STARLINK-1454,45671,53.0533,0.0001272,15.06393628,546.3501804486805,548.1119940900826,1 45671U 20035Q   25344.61581157  .00000819  00000+0  73861-4 0  9991,2 45671  53.0533 106.4901 0001272  76.0919 284.0212 15.06393628305290
STARLINK-1456,45673,53.055,0.000109,15.06391737,546.482017205707,547.9917487121911,1 45673U 20035S   25344.76324110  .00000203  00000+0  32519-4 0  9995,2 45673  53.0550 105.8257 0001090  88.1907 271.9207 15.06391737305330
STARLINK-1457,45674,53.0514,0.0004608,15.47254327,421.6274461993671,427.89699812251,1 45674U 20035T   25344.91670139  .00107219  00000+0  20506-2 0  9994,2 45674  53.0514  96.6524 0004608 327.0176 120.4274 15.47254327  5793
STARLINK-1458,45675,53.0538,0.0001642,15.06377558,546.1431867626816,548.4174938172328,1 45675U 20035U   25344.62687337 -.00000911  00000+0 -42263-4 0  9990,2 45675  53.0538 106.4332 0001642  94.5898 265.5279 15.06377558305278
STARLINK-1460,45676,53.055,0.0001247,15.06397822,546.3546414050516,548.0818250002112,1 45676U 20035V   25344.73005876  .00000921  00000+0  80721-4 0  9995,2 45676  53.0550 105.9727 0001247  88.9474 271.1658 15.06397822305284
STARLINK-1392,45677,53.0541,0.0001119,15.06392453,546.459739410936,548.0096375948242,1 45677U 20035W   25344.60842831  .00000466  00000+0  50150-4 0  9999,2 45677  53.0541 106.5228 0001119  89.6498 270.4619 15.06392453305307
STARLINK-1394,45679,53.0555,0.0001239,15.06380275,546.4139547053319,548.1300710587229,1 45679U 20035Y   25344.60566656 -.00005108  00000+0 -32445-3 0  9995,2 45679  53.0555  96.5310 0001239  92.0087 268.1044 15.06380275305449
STARLINK-1402,45685,53.0535,0.0003397,15.31278628,469.66938095453315,474.32336156696783,1 45685U 20035AE  25344.73926514  .00090510  00000+0  29309-2 0  9992,2 45685  53.0535  82.3332 0003397 287.6086  72.4542 15.31278628305668
STARLINK-1404,45686,53.0548,0.0001188,15.06393284,546.4094077334494,548.0548754414904,1 45686U 20035AF  25344.69780830  .00001046  00000+0  89099-4 0  9997,2 45686  53.0548  96.1190 0001188  85.8678 274.2446 15.06393284305460
STARLINK-1413,45689,53.0555,0.0001451,15.06404124,546.1940522593031,548.2037847428519,1 45689U 20035AJ  25344.71623203  .00000590  00000+0  58467-4 0  9991,2 45689  53.0555  96.0333 0001451  95.6625 264.4530 15.06404124305374
STARLINK-1417,45693,53.0526,9.46e-05,15.0753347,543.0850028898349,544.3946219827467,1 45693U 20035AN  25344.70481292  .00046268  00000+0  30111-2 0  9991,2 45693  53.0526  96.0069 0000946 358.9111   1.1876 15.07533470305452
STARLINK-1420,45695,53.0536,0.0001067,15.06394557,546.4893035284649,547.96717647068,1 45695U 20035AQ  25344.64709751  .00002246  00000+0  16962-3 0  9996,2 45695  53.0536  76.3361 0001067  95.2659 264.8452 15.06394557305733
STARLINK-1422,45696,53.0575,4.27e-05,15.06400481,546.914371422471,547.5057960634222,1 45696U 20035AR  25344.59091979 -.00001183  00000+0 -60591-4 0  9996,2 45696  53.0575  96.6020 0000427  66.1226 293.9808 15.06400481305439
STARLINK-1351,45697,53.056,0.0001335,15.063923,546.3106202467816,548.1596946128147,1 45697U 20035AS  25344.69965491  .00003024  00000+0  22185-3 0  9997,2 45697  53.0560  76.1115 0001335  98.0195 262.0945 15.06392300305743
STARLINK-1398,45699,53.0481,0.0001974,15.58338568,391.12863771904904,393.8016714496798,1 45699U 20035AU  25344.91670139  .00195696  00000+0  24772-2 0  9996,2 45699  53.0481  20.8363 0001974 339.8381 239.7140 15.58338568  5962
STARLINK-1400,45700,53.0552,0.0001435,15.06392239,546.2415534561933,548.229135319033,1 45700U 20035AV  25344.54115778  .00001240  00000+0  10217-3 0  9992,2 45700  53.0552  76.8205 0001435  98.9212 261.1940 15.06392239305719
STARLINK-1403,45701,53.0562,0.0001456,15.06388466,546.2385723155958,548.2552441096677,1 45701U 20035AW  25344.63699375 -.00001833  00000+0 -10422-3 0  9991,2 45701  53.0562  76.3912 0001456  82.4634 277.6521 15.06388466305725
STARLINK-1407,45703,53.0416,0.0008051,15.45313386,424.9758056720657,435.9390043830408,1 45703U 20035AY  25344.82440648  .00029328  00000+0  61161-3 0  9994,2 45703  53.0416  23.4999 0008051 180.6422 179.4575 15.45313386306492
STARLINK-1411,45706,53.0512,0.0003783,15.46264137,425.09155122805896,430.2408219190211,1 45706U 20035BB  25344.51201939  .00086427  00000+0  17167-2 0  9990,2 45706  53.0512  52.1993 0003783  11.2619 348.8471 15.46264137306058
STARLINK-1423,45710,53.052,0.0001408,15.06399878,546.2368427211259,548.1870209803365,1 45710U 20035BF  25344.66278501 -.00000461  00000+0 -12030-4 0  9992,2 45710  53.0520  76.2762 0001408 101.8011 258.3135 15.06399878305730
STARLINK-1433,45711,53.0543,0.0001427,15.0641633,546.1732691950747,548.1497493896277,1 45711U 20035BG  25344.64437169  .00014011  00000+0  95718-3 0  9995,2 45711  53.0543  76.3583 0001427  80.4198 279.6952 15.06416330305722
STARLINK-1434,45712,53.0515,0.0002516,15.18378539,509.0073867327628,512.4738699553445,1 45712U 20035BH  25344.66137650  .00047688  00000+0  22918-2 0  9997,2 45712  53.0515  69.5040 0002516 196.5111 163.5802 15.18378539305836
STARLINK-1465,45731,53.0541,0.0001389,15.0640519,546.2337226761656,548.1575800867204,1 45731U 20038B   25344.54484214  .00011631  00000+0  79830-3 0  9994,2 45731  53.0541 276.8055 0001389  88.0064 272.1084 15.06405190302752
STARLINK-1471,45735,53.0493,0.0001628,15.43032117,436.0569198229423,438.27598262666106,1 45735U 20038F   25344.35051391  .00026345  00000+0  59513-3 0  9997,2 45735  53.0493 207.9410 0001628 102.5199 257.5989 15.43032117303713
STARLINK-1474,45738,53.0327,0.0001708,15.75389911,342.37381388021913,344.66993255131,1 45738U 20038J   25344.91670139  .00221615  00000+0  14028-2 0  9997,2 45738  53.0327 154.0256 0001708 116.4144 192.1414 15.75389911  5904
STARLINK-1475,45739,53.0342,0.0006864,16.16839349,223.6127732152545,232.68188033905426,1 45739U 20038K   25344.89183821  .01521891  19539-2  10077-2 0  9992,2 45739  53.0342 114.3687 0006864 337.1674  22.9057 16.16839349305072
STARLINK-1480,45741,53.0524,0.0001188,15.06408837,546.3617457473365,548.0072021295446,1 45741U 20038M   25344.52640927  .00007721  00000+0  53652-3 0  9997,2 45741  53.0524 276.8835 0001188  82.6538 277.4586 15.06408837302760
STARLINK-1500,45744,53.0373,0.0001969,15.29806842,475.03956352878777,477.7388759541218,1 45744U 20038Q   25344.44596354  .00030996  00000+0  10670-2 0  9997,2 45744  53.0373 249.7417 0001969  45.4147 314.7012 15.29806842303134
STARLINK-1504,45746,53.026,0.0003302,15.44311206,431.1535387814165,435.65187960536787,1 45746U 20038S   25344.61897046  .00102772  00000+0  21759-2 0  9992,2 45746  53.0260 209.5965 0003302  83.5403 276.5978 15.44311206303705
STARLINK-1506,45747,53.0671,0.0002606,15.23004867,494.99136940484004,498.57457769505436,1 45747U 20038T   25343.78626373  .00033887  00000+0  14298-2 0  9993,2 45747  53.0671 257.2301 0002606  22.3705 337.7405 15.23004867302970
STARLINK-1464,45751,53.0537,0.0001547,15.06417213,546.0874598140081,548.2301463354788,1 45751U 20038X   25344.79364713  .00012167  00000+0  83389-3 0  9993,2 45751  53.0537 255.6901 0001547  97.7220 262.3945 15.06417213303084
STARLINK-1477,45754,53.052,0.000628,15.08913473,535.1745326539285,543.8631083644887,1 45754U 20038AA  25344.76950664  .00023683  00000+0  14975-2 0  9998,2 45754  53.0520 255.3840 0006280  92.0130 268.1580 15.08913473303085
STARLINK-1478,45755,53.0532,0.0001818,15.06403149,545.9428801103868,548.4609333368708,1 45755U 20038AB  25344.49509039  .00009230  00000+0  63770-3 0  9995,2 45755  53.0532 257.0262 0001818  85.9530 274.1667 15.06403149303022
STARLINK-1484,45756,53.0135,0.0001077,15.69421382,359.82703433755523,361.2785481185856,1 45756U 20038AC  25344.74830954  .00118529  00000+0  98077-3 0  9997,2 45756  53.0135 144.5125 0001077 153.2523 206.8549 15.69421382304624
STARLINK-1493,45759,53.0529,0.000128,15.06401277,546.3212000055164,548.0940882344112,1 45759U 20038AF  25344.48403169  .00007942  00000+0  55146-3 0  9991,2 45759  53.0529 257.0771 0001280  89.4866 270.6270 15.06401277303022
